NETSAT-3                
1 46505U 20068V   26194.58776779  .00010762  00000+0  24164-3 0  9999
2 46505  97.8647 203.1515 0003581 217.9354 142.1641 15.43571140319753
NETSAT-1                
1 46506U 20068W   26194.53770811  .00007101  00000+0  21028-3 0  9995
2 46506  97.8748 197.1116 0002409 273.0767  87.0199 15.35221100319343
NETSAT-2                
1 46507U 20068X   26194.49833215  .00014643  00000+0  29073-3 0  9996
2 46507  97.8610 204.8657 0001914 216.6397 143.4721 15.47113865319800
TIANQI-6                
1 46810U 20076D   26194.50062427  .00001658  00000+0  10937-3 0  9994
2 46810  34.9982 246.9511 0009799  39.1339 321.0078 15.07347044312558
KSM1-C                  
1 46906U 20081B   26194.64227112  .00004566  00000+0  17106-3 0  9991
2 46906  36.8953 255.5671 0001325  79.1424 280.9474 15.27163144313218
KSM1-D                  
1 46907U 20081C   26194.61410543  .00004319  00000+0  17240-3 0  9996
2 46907  36.8968 265.2664 0002566 126.3308 233.7678 15.25089105313134
KSM1-A                  
1 46912U 20081H   26194.59383241  .00004649  00000+0  17837-3 0  9991
2 46912  36.8962 258.4621 0003006 190.1618 169.9071 15.26359994313217
R2                      
1 46913U 20081J   26194.36288680  .00004454  00000+0  17383-3 0  9998
2 46913  36.8969 260.0065 0007628 152.1325 207.9834 15.25805446315986
KSM1-B                  
1 46914U 20081K   26194.62127796  .00004180  00000+0  16807-3 0  9994
2 46914  36.9018 265.8918 0004580 150.7787 209.3219 15.24871966316223
GONETS-M 20             
1 47227U 20091A   26194.89195692  .00000022  00000+0  83984-4 0  9994
2 47227  82.5054 285.8368 0022140 121.6273 238.6971 12.42894311254393
GONETS-M 21             
1 47228U 20091B   26194.86595402 -.00000040  00000+0 -36322-3 0  9990
2 47228  82.4978 284.5437 0015859 134.6732 225.5643 12.42887086254385
GONETS-M 22             
1 47229U 20091C   26194.83893443  .00000022  00000+0  86723-4 0  9993
2 47229  82.5036 285.4713 0022991 117.2384 243.1042 12.42893497254331
CUBEL                   
1 47448U 21006AM  26194.64421566  .00005732  00000+0  13646-3 0  9991
2 47448  97.2318 244.9902 0007966  86.8494 273.3665 15.41977358303835
ARKTIKA-M 1             
1 47719U 21016A   26188.42887598 -.00000257  00000+0  00000+0 0  9997
2 47719  63.2524  54.6812 7295086 270.0380  14.5466  2.00614486 39194
STARLINK-2342           
1 47883U 21021Z   26194.91671295  .00293204  43618-4  85247-3 0  9993
2 47883  53.1510  13.0422 0008270 286.0664 224.1123 15.92386630  6057
GRUS-1B                 
1 47934U 21022C   26194.88199144  .00000666  00000+0  59904-4 0  9998
2 47934  97.5345  77.1902 0014426 222.8025 137.2076 14.98771674289892
UNISAT-7                
1 47945U 21022P   26194.72088551  .00008688  00000+0  21137-3 0  9990
2 47945  97.3868  99.9318 0008038 353.6678   6.4465 15.41171781293946
GLOBAL-9                
1 47971U 21023G   26194.79102983  .00013260  00000+0  25827-3 0  9995
2 47971  44.9819 100.8828 0003217 160.2920 199.8095 15.47575741299068
AII-BRAVO               
1 48270U 21034C   26194.70787059  .00002854  00000+0  21276-3 0  9995
2 48270  97.5596 249.0142 0006189 166.2835 193.8560 15.03660089283600
TYVAK-182A              
1 48271U 21034D   26194.70305042  .00002869  00000+0  19891-3 0  9990
2 48271  97.5718 253.1614 0004792 227.5284 132.5539 15.06398050283823
CSS (TIANHE)            
1 48274U 21035A   26194.86888909  .00000780  00000+0  14357-4 0  9992
2 48274  41.4690 159.8761 0002698 307.1688  52.8903 15.58061298297332
TYVAK-0130              
1 48606U 21041BF  26194.47441959  .00004555  00000+0  17749-3 0  9996
2 48606  52.9939 263.9739 0008570 252.1955 107.8108 15.27921466284407
HAIYANG-2D              
1 48621U 21043A   26194.82469781  .00000127  00000+0  18879-3 0  9993
2 48621  65.9977 238.3821 0011592 265.9574  94.0169 13.83374017260238
2021-050D               
1 48843U 21050D   26194.87121867  .00003753  00000+0  15973-3 0  9992
2 48843  97.3337 270.3017 0006196 156.5441 203.6080 15.23587728283021
TYVAK-0173              
1 48892U 21059P   26194.73403669  .00000808  00000+0  10598-3 0  9999
2 48892  96.0075 264.4919 0007330 305.9146  54.1391 14.81968811272175
MANDRAKE 2 ABLE         
1 48907U 21059AE  26194.48480365  .00013255  00000+0  19191-3 0  9994
2 48907  97.7024  26.2952 0003673 242.9801 117.1078 15.56024124281219
MANDRAKE 2 BAKER        
1 48908U 21059AF  26194.52919133  .00019156  00000+0  23030-3 0  9993
2 48908  97.6986  29.4035 0002579 225.8714 134.2331 15.60908130281406
PACE-1                  
1 48909U 21059AG  26194.46216980  .00083545  00000+0  35607-3 0  9993
2 48909  97.6716  35.6684 0003448 184.1764 175.9478 15.84993327281957
YAM-3                   
1 48915U 21059AN  26194.81420360  .00007359  00000+0  13727-3 0  9996
2 48915  97.6989  23.5210 0003866 249.2402 110.8434 15.49127530281117
