OBJECT_NAME,OBJECT_ID,EPOCH,MEAN_MOTION,ECCENTRICITY,INCLINATION,RA_OF_ASC_NODE,ARG_OF_PERICENTER,MEAN_ANOMALY,EPHEMERIS_TYPE,CLASSIFICATION_TYPE,NORAD_CAT_ID,ELEMENT_SET_NO,REV_AT_EPOCH,BSTAR,MEAN_MOTION_DOT,MEAN_MOTION_DDOT
NETSAT-3,2020-068V,2026-07-13T14:06:23.137056,15.43571140,.0003581,97.8647,203.1515,217.9354,142.1641,0,U,46505,999,31975,.24164E-3,.10762E-3,0
NETSAT-1,2020-068W,2026-07-13T12:54:17.980704,15.35221100,.0002409,97.8748,197.1116,273.0767,87.0199,0,U,46506,999,31934,.21028E-3,.7101E-4,0
NETSAT-2,2020-068X,2026-07-13T11:57:35.897760,15.47113865,.00019146,97.8610,204.8657,216.6397,143.4721,0,U,46507,999,31980,.29073472E-3,.14643E-3,0
TIANQI-6,2020-076D,2026-07-13T12:00:53.936928,15.07347044,.0009799,34.9982,246.9511,39.1339,321.0078,0,U,46810,999,31255,.10936623E-3,.1658E-4,0
KSM1-C,2020-081B,2026-07-13T15:24:52.224768,15.27163144,.0001325,36.8953,255.5671,79.1424,280.9474,0,U,46906,999,31321,.17106E-3,.4566E-4,0
KSM1-D,2020-081C,2026-07-13T14:44:18.709152,15.25089105,.0002566,36.8968,265.2664,126.3308,233.7678,0,U,46907,999,31313,.1724E-3,.4319E-4,0
KSM1-A,2020-081H,2026-07-13T14:15:07.120224,15.26359994,.0003006,36.8962,258.4621,190.1618,169.9071,0,U,46912,999,31321,.17837E-3,.4649E-4,0
R2,2020-081J,2026-07-13T08:42:33.419520,15.25805446,.00076286,36.8969,260.0065,152.1325,207.9834,0,U,46913,999,31598,.17382899E-3,.4454E-4,0
KSM1-B,2020-081K,2026-07-13T14:54:38.415744,15.24871966,.000458,36.9018,265.8918,150.7787,209.3219,0,U,46914,999,31622,.16807E-3,.418E-4,0
GONETS-M 20,2020-091A,2026-07-13T21:24:25.077888,12.42894311,.002214,82.5054,285.8368,121.6273,238.6971,0,U,47227,999,25439,.83984E-4,.22E-6,0
GONETS-M 21,2020-091B,2026-07-13T20:46:58.427328,12.42887086,.0015859,82.4978,284.5437,134.6732,225.5643,0,U,47228,999,25438,-.36322E-3,-.4E-6,0
GONETS-M 22,2020-091C,2026-07-13T20:08:03.934752,12.42893497,.0022991,82.5036,285.4713,117.2384,243.1042,0,U,47229,999,25433,.86723E-4,.22E-6,0
CUBEL,2021-006AM,2026-07-13T15:27:40.233024,15.41977358,.0007966,97.2318,244.9902,86.8494,273.3665,0,U,47448,999,30383,.13646E-3,.5732E-4,0
ARKTIKA-M 1,2021-016A,2026-07-07T10:17:34.884672,2.00614486,.72950864,63.2524,54.6812,270.0380,14.5466,0,U,47719,999,3919,0,-.257E-5,0
STARLINK-2342,2021-021Z,2026-07-13T22:00:03.998880,15.92386630,.000827,53.1510,13.0422,286.0664,224.1123,0,U,47883,999,605,.85247E-3,.293204E-2,.43618E-4
GRUS-1B,2021-022C,2026-07-13T21:10:04.060416,14.98771674,.0014426,97.5345,77.1902,222.8025,137.2076,0,U,47934,999,28989,.59904E-4,.666E-5,0
UNISAT-7,2021-022P,2026-07-13T17:18:04.508064,15.41171781,.0008038,97.3868,99.9318,353.6678,6.4465,0,U,47945,999,29394,.21137E-3,.8688E-4,0
GLOBAL-9,2021-023G,2026-07-13T18:59:04.977312,15.47575741,.0003217,44.9819,100.8828,160.2920,199.8095,0,U,47971,999,29906,.25827E-3,.1326E-3,0
AII-BRAVO,2021-034C,2026-07-13T16:59:20.018976,15.03660089,.0006189,97.5596,249.0142,166.2835,193.8560,0,U,48270,999,28360,.21276E-3,.2854E-4,0
TYVAK-182A,2021-034D,2026-07-13T16:52:23.556288,15.06398050,.0004792,97.5718,253.1614,227.5284,132.5539,0,U,48271,999,28382,.19891E-3,.2869E-4,0
CSS (TIANHE),2021-035A,2026-07-13T20:51:12.017376,15.58061298,.0002698,41.4690,159.8761,307.1688,52.8903,0,U,48274,999,29733,.14357E-4,.78E-5,0
TYVAK-0130,2021-041BF,2026-07-13T11:23:09.852576,15.27921466,.00085707,52.9939,263.9739,252.1955,107.8108,0,U,48606,999,28440,.17748855E-3,.4555E-4,0
HAIYANG-2D,2021-043A,2026-07-13T19:47:33.890784,13.83374017,.0011592,65.9977,238.3821,265.9574,94.0169,0,U,48621,999,26023,.18879E-3,.127E-5,0
2021-050D,2021-050D,2026-07-13T20:54:33.293088,15.23587728,.0006196,97.3337,270.3017,156.5441,203.6080,0,U,48843,999,28302,.15973E-3,.3753E-4,0
TYVAK-0173,2021-059P,2026-07-13T17:37:00.770016,14.81968811,.000733,96.0075,264.4919,305.9146,54.1391,0,U,48892,999,27217,.10598E-3,.808E-5,0
MANDRAKE 2 ABLE,2021-059AE,2026-07-13T11:38:07.035360,15.56024124,.00036737,97.7024,26.2952,242.9801,117.1078,0,U,48907,999,28121,.19190961E-3,.13255E-3,0
MANDRAKE 2 BAKER,2021-059AF,2026-07-13T12:42:02.130912,15.60908130,.00025793,97.6986,29.4035,225.8714,134.2331,0,U,48908,999,28140,.23030122E-3,.19156E-3,0
PACE-1,2021-059AG,2026-07-13T11:05:31.470720,15.84993327,.00034482,97.6716,35.6684,184.1764,175.9478,0,U,48909,999,28195,.35606707E-3,.83545E-3,0
YAM-3,2021-059AN,2026-07-13T19:32:27.191040,15.49127530,.0003866,97.6989,23.5210,249.2402,110.8434,0,U,48915,999,28111,.13727E-3,.7359E-4,0
